ONEWEB-0054             
1 45158U 20008AD  23059.54295737 -.00000096  00000+0 -31072-3 0  9996
2 45158  87.8755 275.6376 0001323  91.1048 269.0231 13.10367784150260
ONEWEB-0054             
1 45158U 20008AD  23059.84838588  .00000274  00000+0  74998-3 0  9996
2 45158  87.8754 275.5767 0001336  91.5957 268.5323 13.10370035150303
ONEWEB-0054             
1 45158U 20008AD  23060.84103361  .00000398  00000+0  11026-2 0  9991
2 45158  87.8748 275.3779 0001459  93.2614 266.8680 13.10372151150434
ONEWEB-0054             
1 45158U 20008AD  23060.84103361  .00000398  00000+0  11026-2 0  9991
2 45158  87.8748 275.3779 0001459  93.2614 266.8680 13.10372151151198
ONEWEB-0054             
1 45158U 20008AD  23061.68096614 -.00000238  00000+0 -71924-3 0  9995
2 45158  87.8748 275.2100 0001427  93.8557 266.2733 13.10375751150542
ONEWEB-0054             
1 45158U 20008AD  23062.13911099 -.00000237  00000+0 -71650-3 0  9994
2 45158  87.8748 275.1183 0001438  95.1138 265.0154 13.10375868150604
ONEWEB-0054             
1 45158U 20008AD  23062.13911099 -.00000237  00000+0 -71650-3 0  9994
2 45158  87.8748 275.1183 0001438  95.1138 265.0154 13.10375868151368
ONEWEB-0054             
1 45158U 20008AD  23062.82632785 -.00000012  00000+0 -70871-4 0  9998
2 45158  87.8747 274.9811 0001433  94.9947 265.1344 13.10375762150692
